STARLINK-36797          
1 67815U 26032U   26055.48356262 -.00751073  17603-3 -23158-2 0  9990
2 67815  97.2832 241.3027 0000754  93.9098 266.2262 15.91731054  2704
STARLINK-36343          
1 67816U 26032V   26055.48264777 -.00738182  17087-3 -22464-2 0  9991
2 67816  97.2832 241.3030 0000821 100.0453 260.0914 15.91984954  2704
STARLINK-36756          
1 67817U 26032W   26055.48022881 -.00736062  17121-3 -21561-2 0  9991
2 67817  97.2821 241.3056 0005081 110.0411 250.1411 15.92700579  2699
STARLINK-36346          
1 67818U 26032X   26055.47918698 -.00740392  17361-3 -21376-2 0  9992
2 67818  97.2825 241.3074 0005109 108.2068 251.9763 15.92979909  2708
STARLINK-36788          
1 67819U 26032Y   26055.48170184 -.00747110  17519-3 -22454-2 0  9992
2 67819  97.2841 241.3054 0000924  98.4878 261.6501 15.92228302  2706
STARLINK-36353          
1 67820U 26032Z   26055.48092956 -.00737222  17138-3 -21810-2 0  9999
2 67820  97.2831 241.3047 0004920 109.0289 251.1519 15.92510786  2707
STARLINK-36644          
1 67821U 26033A   26056.82527529  .00563352  00000+0  24682-2 0  9994
2 67821  42.9976 344.2364 0002342 174.2181 185.8718 15.82357663  2741
STARLINK-36643          
1 67822U 26033B   26056.82452319  .00376355  00000+0  16880-2 0  9995
2 67822  42.9980 344.2291 0003305 169.5143 190.5798 15.82332671  2744
STARLINK-36646          
1 67823U 26033C   26056.19252583 -.00068073  00000+0 -29901-3 0  9993
2 67823  42.9981 348.0945 0004005 346.2528  13.8235 15.83650553  2648
STARLINK-36647          
1 67824U 26033D   26056.19182615 -.00083183  00000+0 -36225-3 0  9998
2 67824  42.9982 348.0875 0003321 352.4056   7.6766 15.83902270  2643
STARLINK-36648          
1 67825U 26033E   26056.19112762 -.00048416  00000+0 -20681-3 0  9994
2 67825  42.9986 348.0819 0004081 350.4694   9.6101 15.84116052  2647
STARLINK-35865          
1 67826U 26033F   26056.19045831  .00416939  00000+0  16888-2 0  9997
2 67826  42.9985 348.0771 0004254 342.5609  17.5117 15.84385384  2645
